[{"OBJECT_NAME":"OBJECT A","OBJECT_ID":"2023-189A","EPOCH":"2026-03-09T22:59:06.381600","MEAN_MOTION":15.32403275,"ECCENTRICITY":0.00094831,"INCLINATION":97.4458,"RA_OF_ASC_NODE":86.5997,"ARG_OF_PERICENTER":249.5377,"MEAN_ANOMALY":110.4847,"EPHEMERIS_TYPE":0,"CLASSIFICATION_TYPE":"U","NORAD_CAT_ID":58502,"ELEMENT_SET_NO":999,"REV_AT_EPOCH":12601,"BSTAR":0.00019874471,"MEAN_MOTION_DOT":6.146e-5,"MEAN_MOTION_DDOT":0},{"OBJECT_NAME":"STARLINK-35313","OBJECT_ID":"2025-216AA","EPOCH":"2026-03-09T22:45:52.807968","MEAN_MOTION":15.30229779,"ECCENTRICITY":4.85e-5,"INCLINATION":53.1588,"RA_OF_ASC_NODE":331.6538,"ARG_OF_PERICENTER":51.3843,"MEAN_ANOMALY":308.7201,"EPHEMERIS_TYPE":0,"CLASSIFICATION_TYPE":"U","NORAD_CAT_ID":65758,"ELEMENT_SET_NO":999,"REV_AT_EPOCH":2654,"BSTAR":0.0012175401,"MEAN_MOTION_DOT":0.00035909,"MEAN_MOTION_DDOT":0}]
